
[{"ORDINAL":"3","COMMENT":"GENERATED VIA SPACETRACK.ORG API","ORIGINATOR":"JSPOC","NORAD_CAT_ID":"40279","OBJECT_NAME":"BREEZE-M DEB (TANK)","OBJECT_TYPE":"DEBRIS","CLASSIFICATION_TYPE":"U","INTLDES":"14064C","EPOCH":"2015-04-09 08:51:48","EPOCH_MICROSECONDS":"193055","MEAN_MOTION":"2.16097599","ECCENTRICITY":"0.7405558","INCLINATION":"48.9156","RA_OF_ASC_NODE":"223.3928","ARG_OF_PERICENTER":"36.9715","MEAN_ANOMALY":"356.1041","EPHEMERIS_TYPE":"0","ELEMENT_SET_NO":"999","REV_AT_EPOCH":"364","BSTAR":"0.0012277","MEAN_MOTION_DOT":"0.00026109","MEAN_MOTION_DDOT":"2.8745e-07","FILE":"1853432","TLE_LINE0":"0 BREEZE-M DEB (TANK)","TLE_LINE1":"1 40279U 14064C   15099.36930779  .00026109  28745-6  12277-2 0  9996","TLE_LINE2":"2 40279 048.9156 223.3928 7405558 036.9715 356.1041 02.16097599  3642","OBJECT_ID":"2014-064C","OBJECT_NUMBER":"40279"},{"ORDINAL":"3","COMMENT":"GENERATED VIA SPACETRACK.ORG API","ORIGINATOR":"JSPOC","NORAD_CAT_ID":"40537","OBJECT_NAME":"SL-24 DEB","OBJECT_TYPE":"DEBRIS","CLASSIFICATION_TYPE":"U","INTLDES":"15014B","EPOCH":"2015-04-09 10:01:15","EPOCH_MICROSECONDS":"233088","MEAN_MOTION":"15.16861421","ECCENTRICITY":"0.0023561","INCLINATION":"97.5156","RA_OF_ASC_NODE":"39.913","ARG_OF_PERICENTER":"276.5731","MEAN_ANOMALY":"83.2802","EPHEMERIS_TYPE":"0","ELEMENT_SET_NO":"999","REV_AT_EPOCH":"219","BSTAR":"0.00096729","MEAN_MOTION_DOT":"0.00019138","MEAN_MOTION_DDOT":"0","FILE":"1853636","TLE_LINE0":"0 SL-24 DEB","TLE_LINE1":"1 40537U 15014B   15099.41753742  .00019138  00000-0  96729-3 0  9995","TLE_LINE2":"2 40537 097.5156 039.9130 0023561 276.5731 083.2802 15.16861421  2197","OBJECT_ID":"2015-014B","OBJECT_NUMBER":"40537"},{"ORDINAL":"2","COMMENT":"GENERATED VIA SPACETRACK.ORG API","ORIGINATOR":"JSPOC","NORAD_CAT_ID":"39511","OBJECT_NAME":"ARIANE 5 DEB (SYLDA)","OBJECT_TYPE":"DEBRIS","CLASSIFICATION_TYPE":"U","INTLDES":"14006D","EPOCH":"2015-04-09 10:51:25","EPOCH_MICROSECONDS":"9920","MEAN_MOTION":"2.63589147","ECCENTRICITY":"0.6996179","INCLINATION":"5.93","RA_OF_ASC_NODE":"88.7058","ARG_OF_PERICENTER":"203.3283","MEAN_ANOMALY":"96.0533","EPHEMERIS_TYPE":"0","ELEMENT_SET_NO":"999","REV_AT_EPOCH":"1033","BSTAR":"0.0039162","MEAN_MOTION_DOT":"0.00011465","MEAN_MOTION_DDOT":"0","FILE":"1854102","TLE_LINE0":"0 ARIANE 5 DEB (SYLDA)","TLE_LINE1":"1 39511U 14006D   15099.45237280  .00011465  00000-0  39162-2 0  9995","TLE_LINE2":"2 39511 005.9300 088.7058 6996179 203.3283 096.0533 02.63589147 10330","OBJECT_ID":"2014-006D","OBJECT_NUMBER":"39511"},{"ORDINAL":"2","COMMENT":"GENERATED VIA SPACETRACK.ORG API","ORIGINATOR":"JSPOC","NORAD_CAT_ID":"40049","OBJECT_NAME":"SL-24 PLAT","OBJECT_TYPE":"DEBRIS","CLASSIFICATION_TYPE":"U","INTLDES":"14033AR","EPOCH":"2015-04-09 11:31:04","EPOCH_MICROSECONDS":"594655","MEAN_MOTION":"14.86229199","ECCENTRICITY":"0.0014719","INCLINATION":"97.9668","RA_OF_ASC_NODE":"359.6485","ARG_OF_PERICENTER":"46.0224","MEAN_ANOMALY":"314.22","EPHEMERIS_TYPE":"0","ELEMENT_SET_NO":"999","REV_AT_EPOCH":"4343","BSTAR":"0.00029088","MEAN_MOTION_DOT":"2.505e-05","MEAN_MOTION_DDOT":"0","FILE":"1853536","TLE_LINE0":"0 SL-24 PLAT","TLE_LINE1":"1 40049U 14033AR  15099.47991429  .00002505  00000-0  29088-3 0  9999","TLE_LINE2":"2 40049 097.9668 359.6485 0014719 046.0224 314.2200 14.86229199 43431","OBJECT_ID":"2014-033AR","OBJECT_NUMBER":"40049"},{"ORDINAL":"5","COMMENT":"GENERATED VIA SPACETRACK.ORG API","ORIGINATOR":"JSPOC","NORAD_CAT_ID":"40289","OBJECT_NAME":"CZ-2C DEB","OBJECT_TYPE":"DEBRIS","CLASSIFICATION_TYPE":"U","INTLDES":"14066D","EPOCH":"2015-04-09 12:43:58","EPOCH_MICROSECONDS":"32192","MEAN_MOTION":"14.48202621","ECCENTRICITY":"0.0113001","INCLINATION":"98.4406","RA_OF_ASC_NODE":"218.2868","ARG_OF_PERICENTER":"85.4774","MEAN_ANOMALY":"275.9306","EPHEMERIS_TYPE":"0","ELEMENT_SET_NO":"999","REV_AT_EPOCH":"2375","BSTAR":"0.0012903","MEAN_MOTION_DOT":"5.171e-05","MEAN_MOTION_DDOT":"0","FILE":"1853549","TLE_LINE0":"0 CZ-2C DEB","TLE_LINE1":"1 40289U 14066D   15099.53053278  .00005171  00000-0  12903-2 0  9998","TLE_LINE2":"2 40289 098.4406 218.2868 0113001 085.4774 275.9306 14.48202621 23751","OBJECT_ID":"2014-066D","OBJECT_NUMBER":"40289"},{"ORDINAL":"4","COMMENT":"GENERATED VIA SPACETRACK.ORG API","ORIGINATOR":"JSPOC","NORAD_CAT_ID":"40289","OBJECT_NAME":"CZ-2C DEB","OBJECT_TYPE":"DEBRIS","CLASSIFICATION_TYPE":"U","INTLDES":"14066D","EPOCH":"2015-04-09 12:43:58","EPOCH_MICROSECONDS":"485792","MEAN_MOTION":"14.48204222","ECCENTRICITY":"0.011217","INCLINATION":"98.4494","RA_OF_ASC_NODE":"218.2902","ARG_OF_PERICENTER":"89.7768","MEAN_ANOMALY":"271.6768","EPHEMERIS_TYPE":"0","ELEMENT_SET_NO":"999","REV_AT_EPOCH":"2375","BSTAR":"0.0013323","MEAN_MOTION_DOT":"5.377e-05","MEAN_MOTION_DDOT":"0","FILE":"1853644","TLE_LINE0":"0 CZ-2C DEB","TLE_LINE1":"1 40289U 14066D   15099.53053803  .00005377  00000-0  13323-2 0  9997","TLE_LINE2":"2 40289 098.4494 218.2902 0112170 089.7768 271.6768 14.48204222 23757","OBJECT_ID":"2014-066D","OBJECT_NUMBER":"40289"},{"ORDINAL":"2","COMMENT":"GENERATED VIA SPACETRACK.ORG API","ORIGINATOR":"JSPOC","NORAD_CAT_ID":"39730","OBJECT_NAME":"BREEZE-M DEB (TANK)","OBJECT_TYPE":"DEBRIS","CLASSIFICATION_TYPE":"U","INTLDES":"14023D","EPOCH":"2015-04-09 16:53:26","EPOCH_MICROSECONDS":"42495","MEAN_MOTION":"2.38236428","ECCENTRICITY":"0.7223225","INCLINATION":"46.9038","RA_OF_ASC_NODE":"191.3532","ARG_OF_PERICENTER":"94.4723","MEAN_ANOMALY":"343.3196","EPHEMERIS_TYPE":"0","ELEMENT_SET_NO":"999","REV_AT_EPOCH":"796","BSTAR":"0.0014904","MEAN_MOTION_DOT":"0.00020673","MEAN_MOTION_DDOT":"-2.7377e-07","FILE":"1854150","TLE_LINE0":"0 BREEZE-M DEB (TANK)","TLE_LINE1":"1 39730U 14023D   15099.70377364  .00020673 -27377-6  14904-2 0  9994","TLE_LINE2":"2 39730 046.9038 191.3532 7223225 094.4723 343.3196 02.38236428  7969","OBJECT_ID":"2014-023D","OBJECT_NUMBER":"39730"},{"ORDINAL":"3","COMMENT":"GENERATED VIA SPACETRACK.ORG API","ORIGINATOR":"JSPOC","NORAD_CAT_ID":"40048","OBJECT_NAME":"SL-24 DEB","OBJECT_TYPE":"DEBRIS","CLASSIFICATION_TYPE":"U","INTLDES":"14033AQ","EPOCH":"2015-04-09 17:15:52","EPOCH_MICROSECONDS":"653888","MEAN_MOTION":"15.05479646","ECCENTRICITY":"0.0040173","INCLINATION":"97.9658","RA_OF_ASC_NODE":"6.3426","ARG_OF_PERICENTER":"93.1604","MEAN_ANOMALY":"267.3845","EPHEMERIS_TYPE":"0","ELEMENT_SET_NO":"999","REV_AT_EPOCH":"4402","BSTAR":"0.001611","MEAN_MOTION_DOT":"0.00023571","MEAN_MOTION_DDOT":"0","FILE":"1853629","TLE_LINE0":"0 SL-24 DEB","TLE_LINE1":"1 40048U 14033AQ  15099.71935942  .00023571  00000-0  16110-2 0  9990","TLE_LINE2":"2 40048 097.9658 006.3426 0040173 093.1604 267.3845 15.05479646 44023","OBJECT_ID":"2014-033AQ","OBJECT_NUMBER":"40048"},{"ORDINAL":"3","COMMENT":"GENERATED VIA SPACETRACK.ORG API","ORIGINATOR":"JSPOC","NORAD_CAT_ID":"40366","OBJECT_NAME":"BREEZE-M DEB (TANK)","OBJECT_TYPE":"DEBRIS","CLASSIFICATION_TYPE":"U","INTLDES":"14089C","EPOCH":"2015-04-09 17:55:00","EPOCH_MICROSECONDS":"875424","MEAN_MOTION":"5.18513216","ECCENTRICITY":"0.5242629","INCLINATION":"49.5375","RA_OF_ASC_NODE":"351.3302","ARG_OF_PERICENTER":"59.4223","MEAN_ANOMALY":"341.9947","EPHEMERIS_TYPE":"0","ELEMENT_SET_NO":"999","REV_AT_EPOCH":"532","BSTAR":"0.0019017","MEAN_MOTION_DOT":"6.749e-05","MEAN_MOTION_DDOT":"0","FILE":"1853696","TLE_LINE0":"0 BREEZE-M DEB (TANK)","TLE_LINE1":"1 40366U 14089C   15099.74653791  .00006749  00000-0  19017-2 0  9993","TLE_LINE2":"2 40366 049.5375 351.3302 5242629 059.4223 341.9947 05.18513216  5325","OBJECT_ID":"2014-089C","OBJECT_NUMBER":"40366"},{"ORDINAL":"3","COMMENT":"GENERATED VIA SPACETRACK.ORG API","ORIGINATOR":"JSPOC","NORAD_CAT_ID":"39619","OBJECT_NAME":"ARIANE 5 DEB (SYLDA)","OBJECT_TYPE":"DEBRIS","CLASSIFICATION_TYPE":"U","INTLDES":"14011D","EPOCH":"2015-04-09 18:23:17","EPOCH_MICROSECONDS":"139839","MEAN_MOTION":"2.85256819","ECCENTRICITY":"0.6845424","INCLINATION":"2.5732","RA_OF_ASC_NODE":"158.9121","ARG_OF_PERICENTER":"172.1352","MEAN_ANOMALY":"210.4279","EPHEMERIS_TYPE":"0","ELEMENT_SET_NO":"999","REV_AT_EPOCH":"940","BSTAR":"0.0072874","MEAN_MOTION_DOT":"0.00039368","MEAN_MOTION_DDOT":"0","FILE":"1853842","TLE_LINE0":"0 ARIANE 5 DEB (SYLDA)","TLE_LINE1":"1 39619U 14011D   15099.76617060  .00039368  00000-0  72874-2 0  9991","TLE_LINE2":"2 39619 002.5732 158.9121 6845424 172.1352 210.4279 02.85256819  9404","OBJECT_ID":"2014-011D","OBJECT_NUMBER":"39619"},{"ORDINAL":"2","COMMENT":"GENERATED VIA SPACETRACK.ORG API","ORIGINATOR":"JSPOC","NORAD_CAT_ID":"39628","OBJECT_NAME":"CZ-2C DEB","OBJECT_TYPE":"DEBRIS","CLASSIFICATION_TYPE":"U","INTLDES":"14014E","EPOCH":"2015-04-09 18:38:38","EPOCH_MICROSECONDS":"904288","MEAN_MOTION":"14.50145078","ECCENTRICITY":"0.0110009","INCLINATION":"98.4555","RA_OF_ASC_NODE":"160.1735","ARG_OF_PERICENTER":"166.8083","MEAN_ANOMALY":"193.6513","EPHEMERIS_TYPE":"0","ELEMENT_SET_NO":"999","REV_AT_EPOCH":"5424","BSTAR":"0.0012027","MEAN_MOTION_DOT":"5.047e-05","MEAN_MOTION_DDOT":"0","FILE":"1853644","TLE_LINE0":"0 CZ-2C DEB","TLE_LINE1":"1 39628U 14014E   15099.77683917  .00005047  00000-0  12027-2 0  9990","TLE_LINE2":"2 39628 098.4555 160.1735 0110009 166.8083 193.6513 14.50145078 54240","OBJECT_ID":"2014-014E","OBJECT_NUMBER":"39628"},{"ORDINAL":"1","COMMENT":"GENERATED VIA SPACETRACK.ORG API","ORIGINATOR":"JSPOC","NORAD_CAT_ID":"39524","OBJECT_NAME":"BREEZE-M DEB (TANK)","OBJECT_TYPE":"DEBRIS","CLASSIFICATION_TYPE":"U","INTLDES":"14007C","EPOCH":"2015-04-09 18:45:36","EPOCH_MICROSECONDS":"129888","MEAN_MOTION":"3.71763908","ECCENTRICITY":"0.617454","INCLINATION":"49.3838","RA_OF_ASC_NODE":"267.5725","ARG_OF_PERICENTER":"170.6794","MEAN_ANOMALY":"210.7192","EPHEMERIS_TYPE":"0","ELEMENT_SET_NO":"999","REV_AT_EPOCH":"1552","BSTAR":"0.001003","MEAN_MOTION_DOT":"1.404e-05","MEAN_MOTION_DDOT":"0","FILE":"1853884","TLE_LINE0":"0 BREEZE-M DEB (TANK)","TLE_LINE1":"1 39524U 14007C   15099.78166817  .00001404  00000-0  10030-2 0  9998","TLE_LINE2":"2 39524 049.3838 267.5725 6174540 170.6794 210.7192 03.71763908 15524","OBJECT_ID":"2014-007C","OBJECT_NUMBER":"39524"}]